start=new Date('2023-06-28T00:00:00.000Z').valueOf();
sats=[{"MEAN_ELEMENT_THEORY":"SGP4","ARG_OF_PERICENTER":"82.0314","OBJECT_NAME":"STARLINK-4758","LAUNCH_DATE":"2022-09-19","COUNTRY_CODE":"US","TIME_SYSTEM":"UTC","TLE_LINE1":"1 53820U 22114C   23178.87431063  .00003411  00000-0  23227-3 0  9999","RCS_SIZE":"LARGE","MEAN_ANOMALY":"278.0810","BSTAR":"0.00023227000000","OBJECT_TYPE":"PAYLOAD","SEMIMAJOR_AXIS":"6917.866","NORAD_CAT_ID":"53820","GP_ID":"234595857","TLE_LINE2":"2 53820  53.2162  49.8371 0001155  82.0314 278.0810 15.08844851 43468","ECCENTRICITY":"0.00011550","MEAN_MOTION":"15.08844851","MEAN_MOTION_DOT":"0.00003411","APOAPSIS":"540.530","PERIOD":"95.437","ELEMENT_SET_NO":"999","CENTER_NAME":"EARTH","EPOCH":"2023-06-27T20:59:00.438432","MEAN_MOTION_DDOT":"0.0000000000000","OBJECT_ID":"2022-114C","SITE":"AFETR","EPHEMERIS_TYPE":"0","REV_AT_EPOCH":"4346","FILE":"3944548","REF_FRAME":"TEME","DECAY_DATE":null,"RA_OF_ASC_NODE":"49.8371","CLASSIFICATION_TYPE":"U","PERIAPSIS":"538.932","INCLINATION":"53.2162"},{"MEAN_ELEMENT_THEORY":"SGP4","ARG_OF_PERICENTER":"84.0710","OBJECT_NAME":"STARLINK-4752","LAUNCH_DATE":"2022-09-19","COUNTRY_CODE":"US","TLE_LINE1":"1 53821U 22114D   23178.75699306  .00000079  00000-0  23040-4 0  9994","TIME_SYSTEM":"UTC","RCS_SIZE":"LARGE","MEAN_ANOMALY":"276.0412","OBJECT_TYPE":"PAYLOAD","BSTAR":"0.00002304000000","NORAD_CAT_ID":"53821","GP_ID":"234595861","SEMIMAJOR_AXIS":"6917.874","TLE_LINE2":"2 53821  53.2182 354.9594 0001134  84.0710 276.0412 15.08842140 44227","MEAN_MOTION":"15.08842140","ECCENTRICITY":"0.00011340","MEAN_MOTION_DOT":"0.00000079","APOAPSIS":"540.523","PERIOD":"95.437","ELEMENT_SET_NO":"999","CENTER_NAME":"EARTH","MEAN_MOTION_DDOT":"0.0000000000000","EPOCH":"2023-06-27T18:10:04.200384","SITE":"AFETR","OBJECT_ID":"2022-114D","REV_AT_EPOCH":"4422","EPHEMERIS_TYPE":"0","REF_FRAME":"TEME","FILE":"3944548","DECAY_DATE":null,"RA_OF_ASC_NODE":"354.9594","CLASSIFICATION_TYPE":"U","PERIAPSIS":"538.954","INCLINATION":"53.2182"},{"COUNTRY_CODE":"US","TIME_SYSTEM":"UTC","TLE_LINE1":"1 53823U 22114F   23177.85354079  .00000540  00000-0  51984-4 0  9992","RCS_SIZE":"LARGE","MEAN_ANOMALY":"277.7327","BSTAR":"0.00005198400000","OBJECT_TYPE":"PAYLOAD","MEAN_ELEMENT_THEORY":"SGP4","ARG_OF_PERICENTER":"82.3782","OBJECT_NAME":"STARLINK-4748","LAUNCH_DATE":"2022-09-19","MEAN_MOTION_DOT":"0.00000540","APOAPSIS":"540.457","SEMIMAJOR_AXIS":"6917.879","GP_ID":"234580808","NORAD_CAT_ID":"53823","TLE_LINE2":"2 53823  53.2180   9.1839 0001031  82.3782 277.7327 15.08840500 43932","ECCENTRICITY":"0.00010310","MEAN_MOTION":"15.08840500","CENTER_NAME":"EARTH","EPOCH":"2023-06-26T20:29:05.924256","MEAN_MOTION_DDOT":"0.0000000000000","OBJECT_ID":"2022-114F","SITE":"AFETR","EPHEMERIS_TYPE":"0","REV_AT_EPOCH":"4393","ELEMENT_SET_NO":"999","PERIOD":"95.438","DECAY_DATE":null,"RA_OF_ASC_NODE":"9.1839","CLASSIFICATION_TYPE":"U","PERIAPSIS":"539.031","INCLINATION":"53.2180","FILE":"3943953","REF_FRAME":"TEME"},{"LAUNCH_DATE":"2022-09-19","MEAN_ELEMENT_THEORY":"SGP4","ARG_OF_PERICENTER":"78.0108","OBJECT_NAME":"STARLINK-4757","MEAN_ANOMALY":"282.1027","RCS_SIZE":"LARGE","OBJECT_TYPE":"PAYLOAD","BSTAR":"0.00002569300000","COUNTRY_CODE":"US","TLE_LINE1":"1 53824U 22114G   23178.06837272  .00000121  00000-0  25693-4 0  9991","TIME_SYSTEM":"UTC","MEAN_MOTION":"15.08838715","ECCENTRICITY":"0.00012770","GP_ID":"234580814","NORAD_CAT_ID":"53824","SEMIMAJOR_AXIS":"6917.884","TLE_LINE2":"2 53824  53.2160  53.3393 0001277  78.0108 282.1027 15.08838715 43340","APOAPSIS":"540.633","MEAN_MOTION_DOT":"0.00000121","PERIOD":"95.438","ELEMENT_SET_NO":"999","SITE":"AFETR","OBJECT_ID":"2022-114G","REV_AT_EPOCH":"4334","EPHEMERIS_TYPE":"0","CENTER_NAME":"EARTH","MEAN_MOTION_DDOT":"0.0000000000000","EPOCH":"2023-06-27T01:38:27.403008","REF_FRAME":"TEME","FILE":"3943953","CLASSIFICATION_TYPE":"U","PERIAPSIS":"538.866","INCLINATION":"53.2160","DECAY_DATE":null,"RA_OF_ASC_NODE":"53.3393"},{"CLASSIFICATION_TYPE":"U","INCLINATION":"53.2162","PERIAPSIS":"539.047","DECAY_DATE":null,"RA_OF_ASC_NODE":"53.3582","REF_FRAME":"TEME","FILE":"3943953","SITE":"AFETR","OBJECT_ID":"2022-114H","REV_AT_EPOCH":"4334","EPHEMERIS_TYPE":"0","CENTER_NAME":"EARTH","MEAN_MOTION_DDOT":"0.0000000000000","EPOCH":"2023-06-27T01:43:45.696288","ELEMENT_SET_NO":"999","PERIOD":"95.438","APOAPSIS":"540.450","MEAN_MOTION_DOT":"0.00000553","MEAN_MOTION":"15.08839030","ECCENTRICITY":"0.00010140","NORAD_CAT_ID":"53825","GP_ID":"234580308","SEMIMAJOR_AXIS":"6917.883","TLE_LINE2":"2 53825  53.2162  53.3582 0001014  90.2930 269.8179 15.08839030 43342","MEAN_ANOMALY":"269.8179","RCS_SIZE":"LARGE","OBJECT_TYPE":"PAYLOAD","BSTAR":"0.00005282700000","COUNTRY_CODE":"US","TLE_LINE1":"1 53825U 22114H   23178.07205667  .00000553  00000-0  52827-4 0  9998","TIME_SYSTEM":"UTC","LAUNCH_DATE":"2022-09-19","MEAN_ELEMENT_THEORY":"SGP4","ARG_OF_PERICENTER":"90.2930","OBJECT_NAME":"STARLINK-4751"},{"INCLINATION":"53.2158","PERIAPSIS":"538.861","CLASSIFICATION_TYPE":"U","RA_OF_ASC_NODE":"49.6789","DECAY_DATE":null,"REF_FRAME":"TEME","FILE":"3944524","REV_AT_EPOCH":"4346","EPHEMERIS_TYPE":"0","SITE":"AFETR","OBJECT_ID":"2022-114J","MEAN_MOTION_DDOT":"0.0000000000000","EPOCH":"2023-06-27T20:21:51.662304","CENTER_NAME":"EARTH","PERIOD":"95.437","ELEMENT_SET_NO":"999","APOAPSIS":"540.605","MEAN_MOTION_DOT":"0.00002927","MEAN_MOTION":"15.08844096","ECCENTRICITY":"0.00012600","TLE_LINE2":"2 53826  53.2158  49.6789 0001260  91.6850 268.4286 15.08844096 43469","GP_ID":"234595283","NORAD_CAT_ID":"53826","SEMIMAJOR_AXIS":"6917.868","OBJECT_TYPE":"PAYLOAD","BSTAR":"0.00020190000000","MEAN_ANOMALY":"268.4286","RCS_SIZE":"LARGE","TLE_LINE1":"1 53826U 22114J   23178.84851461  .00002927  00000-0  20190-3 0  9997","TIME_SYSTEM":"UTC","COUNTRY_CODE":"US","LAUNCH_DATE":"2022-09-19","ARG_OF_PERICENTER":"91.6850","OBJECT_NAME":"STARLINK-4756","MEAN_ELEMENT_THEORY":"SGP4"},{"OBJECT_ID":"2022-114K","SITE":"AFETR","EPHEMERIS_TYPE":"0","REV_AT_EPOCH":"4346","CENTER_NAME":"EARTH","EPOCH":"2023-06-27T20:37:46.848000","MEAN_MOTION_DDOT":"0.0000000000000","ELEMENT_SET_NO":"999","PERIOD":"95.438","CLASSIFICATION_TYPE":"U","PERIAPSIS":"538.850","INCLINATION":"53.2172","DECAY_DATE":null,"RA_OF_ASC_NODE":"49.7455","FILE":"3944549","REF_FRAME":"TEME","RCS_SIZE":"LARGE","MEAN_ANOMALY":"266.3872","BSTAR":"0.00004308500000","OBJECT_TYPE":"PAYLOAD","COUNTRY_CODE":"US","TIME_SYSTEM":"UTC","TLE_LINE1":"1 53827U 22114K   23178.85957000  .00000398  00000-0  43085-4 0  9994","LAUNCH_DATE":"2022-09-19","MEAN_ELEMENT_THEORY":"SGP4","OBJECT_NAME":"STARLINK-4764","ARG_OF_PERICENTER":"93.7268","APOAPSIS":"540.638","MEAN_MOTION_DOT":"0.00000398","ECCENTRICITY":"0.00012920","MEAN_MOTION":"15.08840391","SEMIMAJOR_AXIS":"6917.879","GP_ID":"234595454","NORAD_CAT_ID":"53827","TLE_LINE2":"2 53827  53.2172  49.7455 0001292  93.7268 266.3872 15.08840391 43460"},{"MEAN_ELEMENT_THEORY":"SGP4","OBJECT_NAME":"STARLINK-4760","ARG_OF_PERICENTER":"89.7262","LAUNCH_DATE":"2022-09-19","COUNTRY_CODE":"US","TLE_LINE1":"1 53828U 22114L   23178.84482715  .00001031  00000-0  82816-4 0  9990","TIME_SYSTEM":"UTC","RCS_SIZE":"LARGE","MEAN_ANOMALY":"270.3861","OBJECT_TYPE":"PAYLOAD","BSTAR":"0.00008281600000","NORAD_CAT_ID":"53828","GP_ID":"234595457","SEMIMAJOR_AXIS":"6917.870","TLE_LINE2":"2 53828  53.2176  49.6558 0001145  89.7262 270.3861 15.08843314 43465","MEAN_MOTION":"15.08843314","ECCENTRICITY":"0.00011450","MEAN_MOTION_DOT":"0.00001031","APOAPSIS":"540.527","PERIOD":"95.437","ELEMENT_SET_NO":"999","CENTER_NAME":"EARTH","MEAN_MOTION_DDOT":"0.0000000000000","EPOCH":"2023-06-27T20:16:33.065760","SITE":"AFETR","OBJECT_ID":"2022-114L","REV_AT_EPOCH":"4346","EPHEMERIS_TYPE":"0","REF_FRAME":"TEME","FILE":"3944549","DECAY_DATE":null,"RA_OF_ASC_NODE":"49.6558","CLASSIFICATION_TYPE":"U","PERIAPSIS":"538.943","INCLINATION":"53.2176"},{"CLASSIFICATION_TYPE":"U","PERIAPSIS":"538.983","INCLINATION":"53.2171","DECAY_DATE":null,"RA_OF_ASC_NODE":"49.7249","REF_FRAME":"TEME","FILE":"3944549","SITE":"AFETR","OBJECT_ID":"2022-114M","REV_AT_EPOCH":"4346","EPHEMERIS_TYPE":"0","CENTER_NAME":"EARTH","MEAN_MOTION_DDOT":"0.0000000000000","EPOCH":"2023-06-27T20:32:28.654080","ELEMENT_SET_NO":"999","PERIOD":"95.438","APOAPSIS":"540.521","MEAN_MOTION_DOT":"0.00001673","MEAN_MOTION":"15.08837776","ECCENTRICITY":"0.00011120","NORAD_CAT_ID":"53829","GP_ID":"234595874","SEMIMAJOR_AXIS":"6917.887","TLE_LINE2":"2 53829  53.2171  49.7249 0001112  92.7800 267.3319 15.08837776 43464","MEAN_ANOMALY":"267.3319","RCS_SIZE":"LARGE","OBJECT_TYPE":"PAYLOAD","BSTAR":"0.00012317000000","COUNTRY_CODE":"US","TLE_LINE1":"1 53829U 22114M   23178.85588720  .00001673  00000-0  12317-3 0  9995","TIME_SYSTEM":"UTC","LAUNCH_DATE":"2022-09-19","MEAN_ELEMENT_THEORY":"SGP4","ARG_OF_PERICENTER":"92.7800","OBJECT_NAME":"STARLINK-4759"},{"TLE_LINE1":"1 53830U 22114N   23178.04257763  .00000488  00000-0  48759-4 0  9991","TIME_SYSTEM":"UTC","COUNTRY_CODE":"US","OBJECT_TYPE":"PAYLOAD","BSTAR":"0.00004875900000","MEAN_ANOMALY":"271.7983","RCS_SIZE":"LARGE","ARG_OF_PERICENTER":"88.3130","OBJECT_NAME":"STARLINK-4761","MEAN_ELEMENT_THEORY":"SGP4","LAUNCH_DATE":"2022-09-19","MEAN_MOTION_DOT":"0.00000488","APOAPSIS":"540.463","TLE_LINE2":"2 53830  53.2174  53.1787 0001054  88.3130 271.7983 15.08843912 43349","GP_ID":"234580807","NORAD_CAT_ID":"53830","SEMIMAJOR_AXIS":"6917.868","MEAN_MOTION":"15.08843912","ECCENTRICITY":"0.00010540","MEAN_MOTION_DDOT":"0.0000000000000","EPOCH":"2023-06-27T01:01:18.707232","CENTER_NAME":"EARTH","REV_AT_EPOCH":"4334","EPHEMERIS_TYPE":"0","SITE":"AFETR","OBJECT_ID":"2022-114N","ELEMENT_SET_NO":"999","PERIOD":"95.437","RA_OF_ASC_NODE":"53.1787","DECAY_DATE":null,"INCLINATION":"53.2174","PERIAPSIS":"539.004","CLASSIFICATION_TYPE":"U","REF_FRAME":"TEME","FILE":"3943953"}];
